[{"OBJECT_NAME":"GPS BIIF-7  (PRN 09)","OBJECT_ID":"2014-045A","EPOCH":"2026-03-06T08:12:07.962048","MEAN_MOTION":2.00551673,"ECCENTRICITY":0.00315063,"INCLINATION":55.2826,"RA_OF_ASC_NODE":92.5609,"ARG_OF_PERICENTER":120.4642,"MEAN_ANOMALY":239.907,"EPHEMERIS_TYPE":0,"CLASSIFICATION_TYPE":"U","NORAD_CAT_ID":40105,"ELEMENT_SET_NO":999,"REV_AT_EPOCH":8401,"BSTAR":0,"MEAN_MOTION_DOT":-6.0e-8,"MEAN_MOTION_DDOT":0},{"OBJECT_NAME":"GPS BIIF-8  (PRN 03)","OBJECT_ID":"2014-068A","EPOCH":"2026-03-06T17:14:22.155072","MEAN_MOTION":2.00570053,"ECCENTRICITY":0.00629025,"INCLINATION":56.9211,"RA_OF_ASC_NODE":34.9026,"ARG_OF_PERICENTER":68.0531,"MEAN_ANOMALY":292.5994,"EPHEMERIS_TYPE":0,"CLASSIFICATION_TYPE":"U","NORAD_CAT_ID":40294,"ELEMENT_SET_NO":999,"REV_AT_EPOCH":8315,"BSTAR":0,"MEAN_MOTION_DOT":-7.7e-7,"MEAN_MOTION_DDOT":0},{"OBJECT_NAME":"GPS BIIF-9  (PRN 26)","OBJECT_ID":"2015-013A","EPOCH":"2026-03-06T08:25:41.329056","MEAN_MOTION":2.00557521,"ECCENTRICITY":0.01087559,"INCLINATION":53.1859,"RA_OF_ASC_NODE":208.429,"ARG_OF_PERICENTER":39.8054,"MEAN_ANOMALY":320.9401,"EPHEMERIS_TYPE":0,"CLASSIFICATION_TYPE":"U","NORAD_CAT_ID":40534,"ELEMENT_SET_NO":999,"REV_AT_EPOCH":7976,"BSTAR":0,"MEAN_MOTION_DOT":1.6e-7,"MEAN_MOTION_DDOT":0},{"OBJECT_NAME":"GPS BIIF-10 (PRN 08)","OBJECT_ID":"2015-033A","EPOCH":"2026-03-07T00:14:44.810304","MEAN_MOTION":2.00561541,"ECCENTRICITY":0.0114563,"INCLINATION":54.0627,"RA_OF_ASC_NODE":271.2974,"ARG_OF_PERICENTER":29.0325,"MEAN_ANOMALY":331.6191,"EPHEMERIS_TYPE":0,"CLASSIFICATION_TYPE":"U","NORAD_CAT_ID":40730,"ELEMENT_SET_NO":999,"REV_AT_EPOCH":7794,"BSTAR":0,"MEAN_MOTION_DOT":-9.0e-8,"MEAN_MOTION_DDOT":0},{"OBJECT_NAME":"GPS BIIF-11 (PRN 10)","OBJECT_ID":"2015-062A","EPOCH":"2026-03-06T13:41:27.741408","MEAN_MOTION":2.00567148,"ECCENTRICITY":0.01114468,"INCLINATION":56.8944,"RA_OF_ASC_NODE":34.7646,"ARG_OF_PERICENTER":231.5107,"MEAN_ANOMALY":127.4729,"EPHEMERIS_TYPE":0,"CLASSIFICATION_TYPE":"U","NORAD_CAT_ID":41019,"ELEMENT_SET_NO":999,"REV_AT_EPOCH":7577,"BSTAR":0,"MEAN_MOTION_DOT":-7.7e-7,"MEAN_MOTION_DDOT":0},{"OBJECT_NAME":"GPS BIIF-12 (PRN 32)","OBJECT_ID":"2016-007A","EPOCH":"2026-03-06T03:46:32.170656","MEAN_MOTION":2.00556703,"ECCENTRICITY":0.0095487,"INCLINATION":55.4568,"RA_OF_ASC_NODE":93.5431,"ARG_OF_PERICENTER":246.0433,"MEAN_ANOMALY":113.0135,"EPHEMERIS_TYPE":0,"CLASSIFICATION_TYPE":"U","NORAD_CAT_ID":41328,"ELEMENT_SET_NO":999,"REV_AT_EPOCH":7377,"BSTAR":0,"MEAN_MOTION_DOT":-4.0e-8,"MEAN_MOTION_DDOT":0},{"OBJECT_NAME":"GPS BIII-1  (PRN 04)","OBJECT_ID":"2018-109A","EPOCH":"2026-03-06T13:04:28.642080","MEAN_MOTION":2.00556975,"ECCENTRICITY":0.00379513,"INCLINATION":55.6164,"RA_OF_ASC_NODE":96.2348,"ARG_OF_PERICENTER":198.3878,"MEAN_ANOMALY":333.9441,"EPHEMERIS_TYPE":0,"CLASSIFICATION_TYPE":"U","NORAD_CAT_ID":43873,"ELEMENT_SET_NO":999,"REV_AT_EPOCH":5301,"BSTAR":0,"MEAN_MOTION_DOT":-4.0e-8,"MEAN_MOTION_DDOT":0},{"OBJECT_NAME":"GPS BIII-2  (PRN 18)","OBJECT_ID":"2019-056A","EPOCH":"2026-03-06T04:23:28.854240","MEAN_MOTION":2.00568454,"ECCENTRICITY":0.00580462,"INCLINATION":55.6839,"RA_OF_ASC_NODE":335.2387,"ARG_OF_PERICENTER":198.0933,"MEAN_ANOMALY":333.3685,"EPHEMERIS_TYPE":0,"CLASSIFICATION_TYPE":"U","NORAD_CAT_ID":44506,"ELEMENT_SET_NO":999,"REV_AT_EPOCH":4800,"BSTAR":0,"MEAN_MOTION_DOT":-1.0e-6,"MEAN_MOTION_DDOT":0},{"OBJECT_NAME":"GPS BIII-3  (PRN 23)","OBJECT_ID":"2020-041A","EPOCH":"2026-03-06T12:27:43.764192","MEAN_MOTION":2.00560728,"ECCENTRICITY":0.00614306,"INCLINATION":56.6073,"RA_OF_ASC_NODE":32.9268,"ARG_OF_PERICENTER":205.2409,"MEAN_ANOMALY":151.126,"EPHEMERIS_TYPE":0,"CLASSIFICATION_TYPE":"U","NORAD_CAT_ID":45854,"ELEMENT_SET_NO":999,"REV_AT_EPOCH":4197,"BSTAR":0,"MEAN_MOTION_DOT":-8.1e-7,"MEAN_MOTION_DDOT":0},{"OBJECT_NAME":"GPS BIII-4  (PRN 14)","OBJECT_ID":"2020-078A","EPOCH":"2026-03-06T19:06:28.734624","MEAN_MOTION":2.00565568,"ECCENTRICITY":0.00683246,"INCLINATION":54.0012,"RA_OF_ASC_NODE":214.9287,"ARG_OF_PERICENTER":204.359,"MEAN_ANOMALY":325.2473,"EPHEMERIS_TYPE":0,"CLASSIFICATION_TYPE":"U","NORAD_CAT_ID":46826,"ELEMENT_SET_NO":999,"REV_AT_EPOCH":3945,"BSTAR":0,"MEAN_MOTION_DOT":2.2e-7,"MEAN_MOTION_DDOT":0},{"OBJECT_NAME":"GPS BIII-5  (PRN 11)","OBJECT_ID":"2021-054A","EPOCH":"2026-03-05T01:41:15.812160","MEAN_MOTION":2.00575594,"ECCENTRICITY":0.0023861,"INCLINATION":55.2207,"RA_OF_ASC_NODE":336.6471,"ARG_OF_PERICENTER":232.0319,"MEAN_ANOMALY":315.6765,"EPHEMERIS_TYPE":0,"CLASSIFICATION_TYPE":"U","NORAD_CAT_ID":48859,"ELEMENT_SET_NO":999,"REV_AT_EPOCH":3466,"BSTAR":0,"MEAN_MOTION_DOT":-1.01e-6,"MEAN_MOTION_DDOT":0},{"OBJECT_NAME":"GPS BIII-6  (PRN 28)","OBJECT_ID":"2023-009A","EPOCH":"2026-03-05T05:50:38.499360","MEAN_MOTION":2.00549197,"ECCENTRICITY":0.0004568,"INCLINATION":55.1095,"RA_OF_ASC_NODE":152.6049,"ARG_OF_PERICENTER":336.6055,"MEAN_ANOMALY":15.2776,"EPHEMERIS_TYPE":0,"CLASSIFICATION_TYPE":"U","NORAD_CAT_ID":55268,"ELEMENT_SET_NO":999,"REV_AT_EPOCH":2315,"BSTAR":0,"MEAN_MOTION_DOT":1.0e-7,"MEAN_MOTION_DDOT":0},{"OBJECT_NAME":"GPS BIII-7  (PRN 01)","OBJECT_ID":"2024-242A","EPOCH":"2026-03-06T15:28:29.759232","MEAN_MOTION":2.00569825,"ECCENTRICITY":0.00158374,"INCLINATION":54.891,"RA_OF_ASC_NODE":338.3407,"ARG_OF_PERICENTER":356.934,"MEAN_ANOMALY":8.8099,"EPHEMERIS_TYPE":0,"CLASSIFICATION_TYPE":"U","NORAD_CAT_ID":62339,"ELEMENT_SET_NO":999,"REV_AT_EPOCH":920,"BSTAR":0,"MEAN_MOTION_DOT":-1.04e-6,"MEAN_MOTION_DDOT":0},{"OBJECT_NAME":"GPS BIII-8  (PRN 21)","OBJECT_ID":"2025-116A","EPOCH":"2026-03-03T09:25:01.763328","MEAN_MOTION":2.00553198,"ECCENTRICITY":0.0008474,"INCLINATION":55.1633,"RA_OF_ASC_NODE":35.3874,"ARG_OF_PERICENTER":325.1064,"MEAN_ANOMALY":37.8908,"EPHEMERIS_TYPE":0,"CLASSIFICATION_TYPE":"U","NORAD_CAT_ID":64202,"ELEMENT_SET_NO":999,"REV_AT_EPOCH":575,"BSTAR":0,"MEAN_MOTION_DOT":-7.7e-7,"MEAN_MOTION_DDOT":0},{"OBJECT_NAME":"GPS BIII-9  (PRN 20)","OBJECT_ID":"2026-017A","EPOCH":"2026-03-03T23:57:34.401312","MEAN_MOTION":2.00560918,"ECCENTRICITY":0.00015162,"INCLINATION":55.0184,"RA_OF_ASC_NODE":92.9751,"ARG_OF_PERICENTER":18.2827,"MEAN_ANOMALY":341.7919,"EPHEMERIS_TYPE":0,"CLASSIFICATION_TYPE":"U","NORAD_CAT_ID":67588,"ELEMENT_SET_NO":999,"REV_AT_EPOCH":42950,"BSTAR":0,"MEAN_MOTION_DOT":1.2e-7,"MEAN_MOTION_DDOT":0}]
